0 SUN
1 00000U 26021.68954861  .00000000  00000-0  00000-0 0    12
2 00000  23.4406   0.0000 0167133 282.7685  17.3327 0.0027377820264
